NORAD_CAT_ID,OBJECT_NAME,OBJECT_TYPE,EPOCH,MEAN_MOTION,ECCENTRICITY,INCLINATION,RA_OF_ASC_NODE,ARG_OF_PERICENTER,MEAN_ANOMALY,BSTAR,MEAN_MOTION_DOT,MEAN_MOTION_DDOT,TLE_LINE0,TLE_LINE1,TLE_LINE2,SEMIMAJOR_AXIS,PERIOD,APOGEE,PERIGEE,DECAYED
53746.0,STARLINK-4589,PAYLOAD,2023-05-01 17:54:05,15.08842323,8.47e-05,53.2149,266.1229,141.279,218.8263,-5.0825e-05,-1.097e-05,0.0,0 STARLINK-4589,1 53746U 22107AY  23121.74590273 -.00001097  00000-0 -50825-4 0  9996,2 53746  53.2149 266.1229 0000847 141.2790 218.8263 15.08842323 37143,6917.873,95.437,540.324,539.152,0.0
53746.0,STARLINK-4589,PAYLOAD,2023-05-02 12:58:43,15.08851641,4.96e-05,53.2148,262.5569,96.0324,264.0725,0.00023017,3.379e-05,0.0,0 STARLINK-4589,1 53746U 22107AY  23122.54077994  .00003379  00000-0  23017-3 0  9990,2 53746  53.2148 262.5569 0000496  96.0324 264.0725 15.08851641 36484,6917.845,95.437,540.053,539.367,0.0
53746.0,STARLINK-4589,PAYLOAD,2023-05-02 14:34:06,15.08854142,5.11e-05,53.215,262.2604,69.3981,290.7066,0.00029208,4.366e-05,0.0,0 STARLINK-4589,1 53746U 22107AY  23122.60701924  .00004366  00000-0  29208-3 0  9999,2 53746  53.2150 262.2604 0000511  69.3981 290.7066 15.08854142 37275,6917.837,95.437,540.056,539.349,0.0
53746.0,STARLINK-4589,PAYLOAD,2023-05-02 16:09:29,15.08856934,5.45e-05,53.215,261.9636,53.0798,307.0244,0.00041713,6.36e-05,0.0,0 STARLINK-4589,1 53746U 22107AY  23122.67325944  .00006360  00000-0  41713-3 0  9991,2 53746  53.2150 261.9636 0000545  53.0798 307.0244 15.08856934 37281,6917.829,95.436,540.071,539.317,0.0
53746.0,STARLINK-4589,PAYLOAD,2023-05-03 01:41:48,15.08848511,5.09e-05,53.2156,260.174,64.4215,295.6829,0.00023723,3.491e-05,0.0,0 STARLINK-4589,1 53746U 22107AY  23123.07070002  .00003491  00000-0  23723-3 0  9991,2 53746  53.2156 260.1740 0000509  64.4215 295.6829 15.08848511 36567,6917.854,95.437,540.071,539.367,0.0
53746.0,STARLINK-4589,PAYLOAD,2023-05-03 09:38:44,15.08840557,9.18e-05,53.2155,258.696,47.3921,312.7148,5.9881e-06,-1.92e-06,0.0,0 STARLINK-4589,1 53746U 22107AY  23123.40190592 -.00000192  00000-0  59881-5 0  9997,2 53746  53.2155 258.6960 0000918  47.3921 312.7148 15.08840557 36613,6917.879,95.438,540.379,539.109,0.0
53746.0,STARLINK-4589,PAYLOAD,2023-05-03 12:49:30,15.08838232,5.68e-05,53.2152,258.0977,61.2853,298.8196,-1.0921e-05,-4.61e-06,0.0,0 STARLINK-4589,1 53746U 22107AY  23123.53438508 -.00000461  00000-0 -10921-4 0  9994,2 53746  53.2152 258.0977 0000568  61.2853 298.8196 15.08838232 37415,6917.886,95.438,540.144,539.358,0.0
53746.0,STARLINK-4589,PAYLOAD,2023-05-03 16:00:16,15.08846115,4.98e-05,53.2151,257.5035,65.2742,294.8302,0.00014982,2.098e-05,0.0,0 STARLINK-4589,1 53746U 22107AY  23123.66686197  .00002098  00000-0  14982-3 0  9993,2 53746  53.2151 257.5035 0000498  65.2742 294.8302 15.08846115 37432,6917.862,95.437,540.071,539.382,0.0
53746.0,STARLINK-4589,PAYLOAD,2023-05-04 12:40:17,15.08842754,4.92e-05,53.2154,253.6381,68.6397,291.4647,0.00033479,5.045e-05,0.0,0 STARLINK-4589,1 53746U 22107AY  23124.52798448  .00005045  00000-0  33479-3 0  9999,2 53746  53.2154 253.6381 0000492  68.6397 291.4647 15.08842754 36780,6917.872,95.437,540.077,539.397,0.0
53746.0,STARLINK-4589,PAYLOAD,2023-05-04 14:15:40,15.08843848,4.82e-05,53.2154,253.3408,67.1558,292.9485,0.00038731,5.882e-05,0.0,0 STARLINK-4589,1 53746U 22107AY  23124.59422435  .00005882  00000-0  38731-3 0  9991,2 53746  53.2154 253.3408 0000482  67.1558 292.9485 15.08843848 37578,6917.869,95.437,540.067,539.4,0.0
53746.0,STARLINK-4589,PAYLOAD,2023-05-05 12:31:05,15.08834638,5.58e-05,53.2159,249.1779,72.0838,288.0215,-1.5561e-05,-5.35e-06,0.0,0 STARLINK-4589,1 53746U 22107AY  23125.52158729 -.00000535  00000-0 -15561-4 0  9996,2 53746  53.2159 249.1779 0000558  72.0838 288.0215 15.08834638 36930,6917.897,95.438,540.148,539.376,0.0
53746.0,STARLINK-4589,PAYLOAD,2023-05-05 15:41:51,15.08842766,5.32e-05,53.2163,248.5833,76.2711,283.8341,-0.00010493,-1.957e-05,0.0,0 STARLINK-4589,1 53746U 22107AY  23125.65406416 -.00001957  00000-0 -10493-3 0  9996,2 53746  53.2163 248.5833 0000532  76.2711 283.8341 15.08842766 37730,6917.872,95.437,540.105,539.369,0.0
53746.0,STARLINK-4589,PAYLOAD,2023-05-06 15:32:38,15.08847604,6.06e-05,53.215,244.121,77.3871,282.7189,0.00019031,2.743e-05,0.0,0 STARLINK-4589,1 53746U 22107AY  23126.64766590  .00002743  00000-0  19031-3 0  9997,2 53746  53.2150 244.1210 0000606  77.3871 282.7189 15.08847604 37888,6917.857,95.437,540.141,539.303,0.0
53746.0,STARLINK-4589,PAYLOAD,2023-05-07 01:04:57,15.08847315,6.04e-05,53.2148,242.3395,73.9881,286.1177,0.00019586,2.831e-05,0.0,0 STARLINK-4589,1 53746U 22107AY  23127.04510561  .00002831  00000-0  19586-3 0  9990,2 53746  53.2148 242.3395 0000604  73.9881 286.1177 15.08847315 37165,6917.858,95.437,540.141,539.305,0.0
53746.0,STARLINK-4589,PAYLOAD,2023-05-07 12:12:39,15.08841765,5.2e-05,53.2154,240.2541,97.8584,262.2467,0.00016955,2.412e-05,0.0,0 STARLINK-4589,1 53746U 22107AY  23127.50878847  .00002412  00000-0  16955-3 0  9997,2 53746  53.2154 240.2541 0000520  97.8584 262.2467 15.08841765 37232,6917.875,95.437,540.1,539.38,0.0
53746.0,STARLINK-4589,PAYLOAD,2023-05-07 13:48:02,15.08845043,5.22e-05,53.2153,239.9573,103.5948,256.5102,8.9351e-05,1.135e-05,0.0,0 STARLINK-4589,1 53746U 22107AY  23127.57502610  .00001135  00000-0  89351-4 0  9998,2 53746  53.2153 239.9573 0000522 103.5948 256.5102 15.08845043 38025,6917.865,95.437,540.091,539.369,0.0
53746.0,STARLINK-4589,PAYLOAD,2023-05-08 10:28:03,15.08835499,5.86e-05,53.2153,236.0926,93.6448,266.4611,3.5837e-05,2.83e-06,0.0,0 STARLINK-4589,1 53746U 22107AY  23128.43615138  .00000283  00000-0  35837-4 0  9997,2 53746  53.2153 236.0926 0000586  93.6448 266.4611 15.08835499 37375,6917.894,95.438,540.165,539.354,0.0
53746.0,STARLINK-4589,PAYLOAD,2023-05-08 13:38:49,15.088383,5.72e-05,53.216,235.498,98.0313,262.0745,6.9978e-05,8.26e-06,0.0,0 STARLINK-4589,1 53746U 22107AY  23128.56862978  .00000826  00000-0  69978-4 0  9993,2 53746  53.2160 235.4980 0000572  98.0313 262.0745 15.08838300 38174,6917.886,95.438,540.146,539.355,0.0
53746.0,STARLINK-4589,PAYLOAD,2023-05-09 11:54:13,15.08837987,5.73e-05,53.2164,231.3346,102.149,257.9566,6.5052e-05,7.48e-06,0.0,0 STARLINK-4589,1 53746U 22107AY  23129.49599022  .00000748  00000-0  65052-4 0  9995,2 53746  53.2164 231.3346 0000573 102.1490 257.9566 15.08837987 37536,6917.887,95.438,540.148,539.355,0.0
53746.0,STARLINK-4589,PAYLOAD,2023-05-09 13:29:36,15.08843343,6.33e-05,53.2161,231.0372,105.8075,254.2987,2.5937e-05,1.25e-06,0.0,0 STARLINK-4589,1 53746U 22107AY  23129.56222811  .00000125  00000-0  25937-4 0  9999,2 53746  53.2161 231.0372 0000633 105.8075 254.2987 15.08843343 38323,6917.87,95.437,540.173,539.297,0.0
53746.0,STARLINK-4589,PAYLOAD,2023-05-10 11:45:01,15.08833055,7.28e-05,53.216,226.875,95.8587,264.2488,6.4241e-05,7.35e-06,0.0,0 STARLINK-4589,1 53746U 22107AY  23130.48959745  .00000735  00000-0  64241-4 0  9993,2 53746  53.2160 226.8750 0000728  95.8587 264.2488 15.08833055 37689,6917.902,95.438,540.27,539.263,0.0
53746.0,STARLINK-4589,PAYLOAD,2023-05-11 10:00:24,15.08838715,9.32e-05,53.2161,222.712,112.0268,248.0823,4.3237e-05,4e-06,0.0,0 STARLINK-4589,1 53746U 22107AY  23131.41695521  .00000400  00000-0  43237-4 0  9997,2 53746  53.2161 222.7120 0000932 112.0268 248.0823 15.08838715 38605,6917.884,95.438,540.394,539.105,0.0
53746.0,STARLINK-4589,PAYLOAD,2023-05-11 11:35:48,15.08838845,8.78e-05,53.2165,222.4144,109.1952,250.9135,3.7505e-05,3.09e-06,0.0,0 STARLINK-4589,1 53746U 22107AY  23131.48319508  .00000309  00000-0  37505-4 0  9991,2 53746  53.2165 222.4144 0000878 109.1952 250.9135 15.08838845 37834,6917.884,95.438,540.356,539.142,0.0
53746.0,STARLINK-4589,PAYLOAD,2023-05-11 22:43:29,15.08840234,8.39e-05,53.2165,220.3332,109.7139,250.3944,2.6993e-05,1.42e-06,0.0,0 STARLINK-4589,1 53746U 22107AY  23131.94687433  .00000142  00000-0  26993-4 0  9991,2 53746  53.2165 220.3332 0000839 109.7139 250.3944 15.08840234 38681,6917.88,95.438,540.325,539.164,0.0
53746.0,STARLINK-4589,PAYLOAD,2023-05-13 11:17:21,15.08844727,0.0001341,53.2175,213.5021,131.7046,228.4061,0.00014227,1.977e-05,0.0,0 STARLINK-4589,1 53746U 22107AY  23133.47039085  .00001977  00000-0  14227-3 0  9998,2 53746  53.2175 213.5021 0001341 131.7046 228.4061 15.08844727 38139,6917.866,95.437,540.659,538.803,0.0
53746.0,STARLINK-4589,PAYLOAD,2023-05-13 12:52:44,15.08842087,0.0001174,53.2163,213.2039,134.2741,225.8348,0.00023581,3.467e-05,0.0,0 STARLINK-4589,1 53746U 22107AY  23133.53662967  .00003467  00000-0  23581-3 0  9995,2 53746  53.2163 213.2039 0001174 134.2741 225.8348 15.08842087 38929,6917.874,95.437,540.551,538.927,0.0
53746.0,STARLINK-4589,PAYLOAD,2023-05-13 22:25:04,15.0884008,9.25e-05,53.2173,211.4186,99.0086,261.1011,0.00010043,1.311e-05,0.0,0 STARLINK-4589,1 53746U 22107AY  23133.93407577  .00001311  00000-0  10043-3 0  9998,2 53746  53.2173 211.4186 0000925  99.0086 261.1011 15.08840080 38208,6917.88,95.438,540.385,539.105,0.0
53746.0,STARLINK-4589,PAYLOAD,2023-05-14 11:08:09,15.0883612,0.0001072,53.217,209.028,94.2731,265.8384,1.0358e-06,-2.71e-06,0.0,0 STARLINK-4589,1 53746U 22107AY  23134.46400237 -.00000271  00000-0  10358-5 0  9999,2 53746  53.2170 209.0280 0001072  94.2731 265.8384 15.08836120 38283,6917.892,95.438,540.499,539.016,0.0
53746.0,STARLINK-4589,PAYLOAD,2023-05-14 12:43:32,15.08836882,9.95e-05,53.2165,208.7373,88.9643,271.1463,1.5799e-05,-3.6e-07,0.0,0 STARLINK-4589,1 53746U 22107AY  23134.53024210 -.00000036  00000-0  15799-4 0  9992,2 53746  53.2165 208.7373 0000995  88.9643 271.1463 15.08836882 39072,6917.89,95.438,540.443,539.067,0.0
53746.0,STARLINK-4589,PAYLOAD,2023-05-15 10:58:56,15.08844956,8.73e-05,53.2158,204.5717,91.976,268.1332,-1.3167e-05,-4.97e-06,0.0,0 STARLINK-4589,1 53746U 22107AY  23135.45759844 -.00000497  00000-0 -13167-4 0  9991,2 53746  53.2158 204.5717 0000873  91.9760 268.1332 15.08844956 38430,6917.865,95.437,540.334,539.126,0.0
